[{"OBJECT_NAME":"STARLINK-32466","OBJECT_ID":"2024-202Q","EPOCH":"2026-03-09T11:14:28.591008","MEAN_MOTION":15.27579013,"ECCENTRICITY":0.00020003,"INCLINATION":43.0012,"RA_OF_ASC_NODE":239.2537,"ARG_OF_PERICENTER":284.1644,"MEAN_ANOMALY":75.8985,"EPHEMERIS_TYPE":0,"CLASSIFICATION_TYPE":"U","NORAD_CAT_ID":61859,"ELEMENT_SET_NO":999,"REV_AT_EPOCH":7530,"BSTAR":1.3395711e-5,"MEAN_MOTION_DOT":1.06e-6,"MEAN_MOTION_DDOT":0},{"OBJECT_NAME":"FLOCK 4G-23","OBJECT_ID":"2025-009AQ","EPOCH":"2026-03-09T17:11:57.175872","MEAN_MOTION":15.27262579,"ECCENTRICITY":9.048e-5,"INCLINATION":97.3979,"RA_OF_ASC_NODE":150.9478,"ARG_OF_PERICENTER":7.2707,"MEAN_ANOMALY":352.8545,"EPHEMERIS_TYPE":0,"CLASSIFICATION_TYPE":"U","NORAD_CAT_ID":62647,"ELEMENT_SET_NO":999,"REV_AT_EPOCH":6372,"BSTAR":0.00046815788,"MEAN_MOTION_DOT":0.0001244,"MEAN_MOTION_DDOT":0}]
